NORAD_CAT_ID,OBJECT_NAME,OBJECT_TYPE,EPOCH,MEAN_MOTION,ECCENTRICITY,INCLINATION,RA_OF_ASC_NODE,ARG_OF_PERICENTER,MEAN_ANOMALY,BSTAR,MEAN_MOTION_DOT,MEAN_MOTION_DDOT,TLE_LINE0,TLE_LINE1,TLE_LINE2,SEMIMAJOR_AXIS,PERIOD,APOGEE,PERIGEE,DECAYED
51784.0,STARLINK-3632,PAYLOAD,2022-09-30 06:55:37,15.0885413,0.0001506999999999,53.2167,229.3198,68.1498,291.9654,0.00020366,2.956e-05,0.0,0 STARLINK-3632,1 51784U 22017S   22273.28862994  .00002956  00000-0  20366-3 0  9993,2 51784  53.2167 229.3198 0001507  68.1498 291.9654 15.08854130 32606,6917.837,95.437,540.745,538.66,0.0
51784.0,STARLINK-3632,PAYLOAD,2022-10-01 02:00:15,15.08849206,0.0001443999999999,53.2166,225.7507,70.9478,289.1671,0.00017346,2.474e-05,0.0,0 STARLINK-3632,1 51784U 22017S   22274.08351005  .00002474  00000-0  17346-3 0  9997,2 51784  53.2166 225.7507 0001444  70.9478 289.1671 15.08849206 34370,6917.852,95.437,540.716,538.7180000000002,0.0
51784.0,STARLINK-3632,PAYLOAD,2022-10-01 08:21:47,15.0885215,0.0001429,53.2165,224.5612,68.3273,291.7871,0.00021857,3.193e-05,0.0,0 STARLINK-3632,1 51784U 22017S   22274.34846751  .00003193  00000-0  21857-3 0  9994,2 51784  53.2165 224.5612 0001429  68.3273 291.7871 15.08852150 32764,6917.843000000003,95.437,540.697,538.72,0.0
51784.0,STARLINK-3632,PAYLOAD,2022-10-01 21:04:52,15.08847673,0.0001424,53.2164,222.1821,68.5259,291.5884,0.00012125,1.643e-05,0.0,0 STARLINK-3632,1 51784U 22017S   22274.87838740  .00001643  00000-0  12125-3 0  9997,2 51784  53.2164 222.1821 0001424  68.5259 291.5884 15.08847673 32845,6917.857,95.437,540.707,538.737,0.0
51784.0,STARLINK-3632,PAYLOAD,2022-10-02 03:26:25,15.08839772,0.0001428,53.2164,220.9927,66.3536,293.7606,-2.0989e-05,-6.22e-06,0.0,0 STARLINK-3632,1 51784U 22017S   22275.14335053 -.00000622  00000-0 -20989-4 0  9993,2 51784  53.2164 220.9927 0001428  66.3536 293.7606 15.08839772 34531,6917.880999999999,95.438,540.734,538.758,0.0
51784.0,STARLINK-3632,PAYLOAD,2022-10-02 08:12:35,15.08829881,0.000151,53.2162,220.1016,64.6657,295.4492,-0.00018285,-3.196e-05,0.0,0 STARLINK-3632,1 51784U 22017S   22275.34207653 -.00003196  00000-0 -18285-3 0  9993,2 51784  53.2162 220.1016 0001510  64.6657 295.4492 15.08829881 32919,6917.911,95.438,540.821,538.732,0.0
51784.0,STARLINK-3632,PAYLOAD,2022-10-02 20:55:40,15.08836465,0.0001406999999999,53.2164,217.7215,62.4868,297.6267,1.2101e-05,-9.5e-07,0.0,0 STARLINK-3632,1 51784U 22017S   22275.87199538 -.00000095  00000-0  12101-4 0  9999,2 51784  53.2164 217.7215 0001407  62.4868 297.6267 15.08836465 32997,6917.891,95.438,540.73,538.783,0.0
51784.0,STARLINK-3632,PAYLOAD,2022-10-03 04:52:35,15.08850707,0.0001392,53.2165,216.2354,65.2202,294.8935,0.00025657,3.799e-05,0.0,0 STARLINK-3632,1 51784U 22017S   22276.20319010  .00003799  00000-0  25657-3 0  9998,2 51784  53.2165 216.2354 0001392  65.2202 294.8935 15.08850707 34697,6917.848000000001,95.437,540.6759999999998,538.75,0.0
51784.0,STARLINK-3632,PAYLOAD,2022-10-03 08:03:21,15.08858786,0.0001381,53.2161,215.6407,65.0419,295.0716,0.00068914,0.00010702,0.0,0 STARLINK-3632,1 51784U 22017S   22276.33566974  .00010702  00000-0  68914-3 0  9990,2 51784  53.2161 215.6407 0001381  65.0419 295.0716 15.08858786 33066,6917.823,95.436,540.643,538.7330000000002,0.0
51784.0,STARLINK-3632,PAYLOAD,2022-10-04 04:43:21,15.08864225,0.0001281,53.2158,211.775,69.1192,290.9937,0.00046353,7.102e-05,0.0,0 STARLINK-3632,1 51784U 22017S   22277.19678215  .00007102  00000-0  46353-3 0  9990,2 51784  53.2158 211.7750 0001281  69.1192 290.9937 15.08864225 33190,6917.806,95.436,540.558,538.785,0.0
51784.0,STARLINK-3632,PAYLOAD,2022-10-05 04:34:10,15.08825335,0.0001336,53.2156,207.3143,75.4141,284.6999,-0.00022437,-3.856e-05,0.0,0 STARLINK-3632,1 51784U 22017S   22278.19039447 -.00003856  00000-0 -22437-3 0  9990,2 51784  53.2156 207.3143 0001336  75.4141 284.6999 15.08825335 34996,6917.925,95.438,540.714,538.866,0.0
51784.0,STARLINK-3632,PAYLOAD,2022-10-05 12:31:05,15.08827674,0.0001169,53.2157,205.8263,78.6743,281.438,0.00013878,1.921e-05,0.0,0 STARLINK-3632,1 51784U 22017S   22278.52159700  .00001921  00000-0  13878-3 0  9990,2 51784  53.2157 205.8263 0001169  78.6743 281.4380 15.08827674 33390,6917.918000000002,95.438,540.592,538.974,0.0
51784.0,STARLINK-3632,PAYLOAD,2022-10-06 02:49:34,15.08840561,0.0001361,53.2157,203.1513,76.4454,283.6690000000001,0.00071212,0.00011064,0.0,0 STARLINK-3632,1 51784U 22017S   22279.11776024  .00011064  00000-0  71212-3 0  9995,2 51784  53.2157 203.1513 0001361  76.4454 283.6690 15.08840561 35130,6917.879,95.438,540.685,538.802,0.0
51784.0,STARLINK-3632,PAYLOAD,2022-10-06 12:21:53,15.08852641,0.0001355,53.216,201.3663,78.0191,282.0953,0.00081812,0.00012761,0.0,0 STARLINK-3632,1 51784U 22017S   22279.51519764  .00012761  00000-0  81812-3 0  9997,2 51784  53.2160 201.3663 0001355  78.0191 282.0953 15.08852641 33549,6917.842,95.437,540.644,538.769,0.0
51784.0,STARLINK-3632,PAYLOAD,2022-10-07 04:15:44,15.08836844,0.0001384,53.2168,198.394,72.9143,287.2001,0.00011425,1.531e-05,0.0,0 STARLINK-3632,1 51784U 22017S   22280.17760176  .00001531  00000-0  11425-3 0  9992,2 51784  53.2168 198.3940 0001384  72.9143 287.2001 15.08836844 35294,6917.89,95.438,540.712,538.798,0.0
51784.0,STARLINK-3632,PAYLOAD,2022-10-07 12:12:40,15.08847354,0.0001375999999999,53.2168,196.9075,72.8375,287.2768,0.00025763,3.815e-05,0.0,0 STARLINK-3632,1 51784U 22017S   22280.50879760  .00003815  00000-0  25763-3 0  9996,2 51784  53.2168 196.9075 0001376  72.8375 287.2768 15.08847354 33694,6917.858,95.437,540.675,538.771,0.0
51784.0,STARLINK-3632,PAYLOAD,2022-10-08 00:55:45,15.0883951,0.0001363,53.217,194.5286,70.7232,289.3907,5.0865e-05,5.22e-06,0.0,0 STARLINK-3632,1 51784U 22017S   22281.03872171  .00000522  00000-0  50865-4 0  9998,2 51784  53.2170 194.5286 0001363  70.7232 289.3907 15.08839510 35426,6917.882,95.438,540.69,538.804,0.0
51784.0,STARLINK-3632,PAYLOAD,2022-10-09 03:57:18,15.08841085,0.0001419,53.2176,189.4741,71.7712,288.3435,0.00018951,2.729e-05,0.0,0 STARLINK-3632,1 51784U 22017S   22282.16480101  .00002729  00000-0  18951-3 0  9991,2 51784  53.2176 189.4741 0001419  71.7712 288.3435 15.08841085 35590,6917.877,95.437,540.724,538.76,0.0
51784.0,STARLINK-3632,PAYLOAD,2022-10-09 05:32:41,15.08843228,0.0001415,53.2175,189.1765,71.6892,288.4254,0.00020425,2.964e-05,0.0,0 STARLINK-3632,1 51784U 22017S   22282.23103923  .00002964  00000-0  20425-3 0  9993,2 51784  53.2175 189.1765 0001415  71.6892 288.4254 15.08843228 33955,6917.871,95.437,540.714,538.757,0.0
51784.0,STARLINK-3632,PAYLOAD,2022-10-09 19:51:10,15.08839726,0.0001426999999999,53.2175,186.5001,72.4692,287.6456,0.00013913,1.927e-05,0.0,0 STARLINK-3632,1 51784U 22017S   22282.82720201  .00001927  00000-0  13913-3 0  9994,2 51784  53.2175 186.5001 0001427  72.4692 287.6456 15.08839726 34043,6917.880999999999,95.438,540.7330000000002,538.759,0.0
51784.0,STARLINK-3632,PAYLOAD,2022-10-10 02:12:43,15.08829826,0.0001317,53.2175,185.3103,71.1271,288.9864,8.5843e-05,1.078e-05,0.0,0 STARLINK-3632,1 51784U 22017S   22283.09217133  .00001078  00000-0  85843-4 0  9998,2 51784  53.2175 185.3103 0001317  71.1271 288.9864 15.08829826 35734,6917.911,95.438,540.688,538.865,0.0
51784.0,STARLINK-3632,PAYLOAD,2022-10-10 10:09:39,15.08826162,0.0001399,53.217,183.8238,70.7767,289.3377,-6.607600000000001e-05,-1.339e-05,0.0,0 STARLINK-3632,1 51784U 22017S   22283.42337311 -.00001339  00000-0 -66076-4 0  9995,2 51784  53.2170 183.8238 0001399  70.7767 289.3377 15.08826162 34133,6917.9230000000025,95.438,540.756,538.82,0.0
51784.0,STARLINK-3632,PAYLOAD,2022-10-10 19:41:58,15.08831544,0.0001318,53.217,182.0387,68.749,291.3643,3.1486e-05,2.13e-06,0.0,0 STARLINK-3632,1 51784U 22017S   22283.82081677  .00000213  00000-0  31486-4 0  9995,2 51784  53.2170 182.0387 0001318  68.7490 291.3643 15.08831544 34195,6917.906,95.438,540.683,538.859,0.0
51784.0,STARLINK-3632,PAYLOAD,2022-10-11 00:28:08,15.08829869,0.0001358,53.2168,181.147,64.3366,295.7766,2.4918e-05,1.09e-06,0.0,0 STARLINK-3632,1 51784U 22017S   22284.01953912  .00000109  00000-0  24918-4 0  9993,2 51784  53.2168 181.1470 0001358  64.3366 295.7766 15.08829869 34228,6917.911,95.438,540.716,538.837,0.0
51784.0,STARLINK-3632,PAYLOAD,2022-10-11 16:22:00,15.08825437,0.000136,53.2176,178.1747,68.2779,291.8358,-5.2556e-05,-1.124e-05,0.0,0 STARLINK-3632,1 51784U 22017S   22284.68194945 -.00001124  00000-0 -52556-4 0  9998,2 51784  53.2176 178.1747 0001360  68.2779 291.8358 15.08825437 35978,6917.925,95.438,540.731,538.849,0.0
51784.0,STARLINK-3632,PAYLOAD,2022-10-12 01:54:19,15.08832114,0.0001353,53.2171,176.3903,62.9106,297.2024,1.5586e-05,-4e-07,0.0,0 STARLINK-3632,1 51784U 22017S   22285.07938676 -.00000040  00000-0  15586-4 0  9996,2 51784  53.2171 176.3903 0001353  62.9106 297.2024 15.08832114 36032,6917.904,95.438,540.705,538.8340000000002,0.0
51784.0,STARLINK-3632,PAYLOAD,2022-10-12 16:12:46,15.08840659,0.0001302,53.2168,173.7128,68.5536,291.5595,0.00020736,3.014e-05,0.0,0 STARLINK-3632,1 51784U 22017S   22285.67554022  .00003014  00000-0  20736-3 0  9996,2 51784  53.2168 173.7128 0001302  68.5536 291.5595 15.08840659 34470,6917.878000000002,95.438,540.644,538.8430000000002,0.0
51784.0,STARLINK-3632,PAYLOAD,2022-10-13 01:45:06,15.08829927,0.0001289,53.2175,171.9296,70.1337,289.9794,0.00010416,1.3699999999999998e-05,0.0,0 STARLINK-3632,1 51784U 22017S   22286.07298966  .00001370  00000-0  10416-3 0  9990,2 51784  53.2175 171.9296 0001289  70.1337 289.9794 15.08829927 36183,6917.911,95.438,540.668,538.884,0.0
51784.0,STARLINK-3632,PAYLOAD,2022-10-13 09:42:01,15.08832512,0.0001183,53.2175,170.4422,73.8264,286.2858,0.0001943999999999,2.807e-05,0.0,0 STARLINK-3632,1 51784U 22017S   22286.40418771  .00002807  00000-0  19440-3 0  9997,2 51784  53.2175 170.4422 0001183  73.8264 286.2858 15.08832512 34587,6917.903,95.438,540.587,538.95,0.0
